[{"OBJECT_NAME":"TECHNOSAT","OBJECT_ID":"2017-042E","EPOCH":"2026-03-15T00:22:35.159808","MEAN_MOTION":15.04330295,"ECCENTRICITY":0.00189824,"INCLINATION":97.4142,"RA_OF_ASC_NODE":235.3576,"ARG_OF_PERICENTER":58.2057,"MEAN_ANOMALY":302.1015,"EPHEMERIS_TYPE":0,"CLASSIFICATION_TYPE":"U","NORAD_CAT_ID":42829,"ELEMENT_SET_NO":999,"REV_AT_EPOCH":47254,"BSTAR":0.00029582099,"MEAN_MOTION_DOT":4.08e-5,"MEAN_MOTION_DDOT":0},{"OBJECT_NAME":"FLYING LAPTOP","OBJECT_ID":"2017-042G","EPOCH":"2026-03-15T07:30:31.109184","MEAN_MOTION":15.0055978,"ECCENTRICITY":0.00197127,"INCLINATION":97.4282,"RA_OF_ASC_NODE":233.7368,"ARG_OF_PERICENTER":77.923,"MEAN_ANOMALY":282.4202,"EPHEMERIS_TYPE":0,"CLASSIFICATION_TYPE":"U","NORAD_CAT_ID":42831,"ELEMENT_SET_NO":999,"REV_AT_EPOCH":47237,"BSTAR":0.00028713443,"MEAN_MOTION_DOT":3.581e-5,"MEAN_MOTION_DDOT":0},{"OBJECT_NAME":"HAWK-A","OBJECT_ID":"2018-099H","EPOCH":"2026-03-15T01:30:31.300992","MEAN_MOTION":15.23327285,"ECCENTRICITY":0.00342669,"INCLINATION":97.4047,"RA_OF_ASC_NODE":127.5569,"ARG_OF_PERICENTER":255.736,"MEAN_ANOMALY":104.007,"EPHEMERIS_TYPE":0,"CLASSIFICATION_TYPE":"U","NORAD_CAT_ID":43765,"ELEMENT_SET_NO":999,"REV_AT_EPOCH":39876,"BSTAR":0.00038399698,"MEAN_MOTION_DOT":9.197e-5,"MEAN_MOTION_DDOT":0},{"OBJECT_NAME":"HAWK-B","OBJECT_ID":"2018-099AN","EPOCH":"2026-03-15T00:58:45.680736","MEAN_MOTION":15.21620584,"ECCENTRICITY":0.0031233,"INCLINATION":97.4095,"RA_OF_ASC_NODE":127.1397,"ARG_OF_PERICENTER":273.8059,"MEAN_ANOMALY":85.9606,"EPHEMERIS_TYPE":0,"CLASSIFICATION_TYPE":"U","NORAD_CAT_ID":43794,"ELEMENT_SET_NO":999,"REV_AT_EPOCH":39871,"BSTAR":0.00037000943,"MEAN_MOTION_DOT":8.397e-5,"MEAN_MOTION_DDOT":0},{"OBJECT_NAME":"HAWK-C","OBJECT_ID":"2018-099AT","EPOCH":"2026-03-15T01:09:04.503456","MEAN_MOTION":15.26518545,"ECCENTRICITY":0.00403807,"INCLINATION":97.4024,"RA_OF_ASC_NODE":128.0095,"ARG_OF_PERICENTER":257.706,"MEAN_ANOMALY":101.9656,"EPHEMERIS_TYPE":0,"CLASSIFICATION_TYPE":"U","NORAD_CAT_ID":43799,"ELEMENT_SET_NO":999,"REV_AT_EPOCH":39954,"BSTAR":0.00040315266,"MEAN_MOTION_DOT":0.0001071,"MEAN_MOTION_DDOT":0},{"OBJECT_NAME":"SALSAT","OBJECT_ID":"2020-068K","EPOCH":"2026-03-15T05:43:28.441632","MEAN_MOTION":15.28307413,"ECCENTRICITY":0.00080338,"INCLINATION":97.8857,"RA_OF_ASC_NODE":71.6917,"ARG_OF_PERICENTER":272.6742,"MEAN_ANOMALY":87.3577,"EPHEMERIS_TYPE":0,"CLASSIFICATION_TYPE":"U","NORAD_CAT_ID":46495,"ELEMENT_SET_NO":999,"REV_AT_EPOCH":30100,"BSTAR":0.00037867351,"MEAN_MOTION_DOT":0.00010372,"MEAN_MOTION_DDOT":0},{"OBJECT_NAME":"HAWK-2C","OBJECT_ID":"2021-006CT","EPOCH":"2026-03-15T02:13:13.882656","MEAN_MOTION":15.33377562,"ECCENTRICITY":0.00075497,"INCLINATION":97.2413,"RA_OF_ASC_NODE":120.3032,"ARG_OF_PERICENTER":165.9667,"MEAN_ANOMALY":194.1787,"EPHEMERIS_TYPE":0,"CLASSIFICATION_TYPE":"U","NORAD_CAT_ID":47502,"ELEMENT_SET_NO":999,"REV_AT_EPOCH":28507,"BSTAR":0.00027715798,"MEAN_MOTION_DOT":8.872e-5,"MEAN_MOTION_DDOT":0},{"OBJECT_NAME":"HAWK-2A","OBJECT_ID":"2021-006CW","EPOCH":"2026-03-15T02:18:11.587680","MEAN_MOTION":15.3339551,"ECCENTRICITY":0.00070687,"INCLINATION":97.2454,"RA_OF_ASC_NODE":120.9288,"ARG_OF_PERICENTER":168.4172,"MEAN_ANOMALY":191.7234,"EPHEMERIS_TYPE":0,"CLASSIFICATION_TYPE":"U","NORAD_CAT_ID":47505,"ELEMENT_SET_NO":999,"REV_AT_EPOCH":28507,"BSTAR":0.00026828214,"MEAN_MOTION_DOT":8.589e-5,"MEAN_MOTION_DDOT":0},{"OBJECT_NAME":"HAWK-2B","OBJECT_ID":"2021-006CZ","EPOCH":"2026-03-15T02:13:38.443584","MEAN_MOTION":15.3339648,"ECCENTRICITY":0.0007736,"INCLINATION":97.2329,"RA_OF_ASC_NODE":119.4149,"ARG_OF_PERICENTER":166.7728,"MEAN_ANOMALY":193.3719,"EPHEMERIS_TYPE":0,"CLASSIFICATION_TYPE":"U","NORAD_CAT_ID":47508,"ELEMENT_SET_NO":999,"REV_AT_EPOCH":28507,"BSTAR":0.00029684079,"MEAN_MOTION_DOT":9.514e-5,"MEAN_MOTION_DDOT":0},{"OBJECT_NAME":"HAWK-3B","OBJECT_ID":"2021-059BE","EPOCH":"2026-03-15T06:03:11.215296","MEAN_MOTION":15.62065567,"ECCENTRICITY":0.00049294,"INCLINATION":97.6721,"RA_OF_ASC_NODE":262.5973,"ARG_OF_PERICENTER":315.7658,"MEAN_ANOMALY":44.3205,"EPHEMERIS_TYPE":0,"CLASSIFICATION_TYPE":"U","NORAD_CAT_ID":48931,"ELEMENT_SET_NO":999,"REV_AT_EPOCH":26315,"BSTAR":0.00052324999,"MEAN_MOTION_DOT":0.00045829,"MEAN_MOTION_DDOT":0},{"OBJECT_NAME":"HAWK-3C","OBJECT_ID":"2021-059BX","EPOCH":"2026-03-15T06:02:48.930144","MEAN_MOTION":15.62067911,"ECCENTRICITY":0.0005316,"INCLINATION":97.6867,"RA_OF_ASC_NODE":268.1081,"ARG_OF_PERICENTER":317.3987,"MEAN_ANOMALY":42.6857,"EPHEMERIS_TYPE":0,"CLASSIFICATION_TYPE":"U","NORAD_CAT_ID":48948,"ELEMENT_SET_NO":999,"REV_AT_EPOCH":26315,"BSTAR":0.00051169325,"MEAN_MOTION_DOT":0.00044817,"MEAN_MOTION_DDOT":0},{"OBJECT_NAME":"HAWK-3A","OBJECT_ID":"2021-059CG","EPOCH":"2026-03-15T06:02:35.521728","MEAN_MOTION":15.62065289,"ECCENTRICITY":0.0004981,"INCLINATION":97.6802,"RA_OF_ASC_NODE":265.3912,"ARG_OF_PERICENTER":316.2362,"MEAN_ANOMALY":43.8499,"EPHEMERIS_TYPE":0,"CLASSIFICATION_TYPE":"U","NORAD_CAT_ID":48957,"ELEMENT_SET_NO":999,"REV_AT_EPOCH":26315,"BSTAR":0.0005155101,"MEAN_MOTION_DOT":0.00045146,"MEAN_MOTION_DDOT":0},{"OBJECT_NAME":"HAWK-5C","OBJECT_ID":"2022-057Y","EPOCH":"2026-03-14T23:04:19.382880","MEAN_MOTION":15.47802827,"ECCENTRICITY":0.00053485,"INCLINATION":97.6453,"RA_OF_ASC_NODE":227.8913,"ARG_OF_PERICENTER":59.0772,"MEAN_ANOMALY":301.1002,"EPHEMERIS_TYPE":0,"CLASSIFICATION_TYPE":"U","NORAD_CAT_ID":52754,"ELEMENT_SET_NO":999,"REV_AT_EPOCH":21175,"BSTAR":0.00049768851,"MEAN_MOTION_DOT":0.00025797,"MEAN_MOTION_DDOT":0},{"OBJECT_NAME":"HAWK-5B","OBJECT_ID":"2022-057AA","EPOCH":"2026-03-14T23:04:08.186304","MEAN_MOTION":15.47801927,"ECCENTRICITY":0.00051365,"INCLINATION":97.646,"RA_OF_ASC_NODE":226.2317,"ARG_OF_PERICENTER":53.3358,"MEAN_ANOMALY":306.8363,"EPHEMERIS_TYPE":0,"CLASSIFICATION_TYPE":"U","NORAD_CAT_ID":52756,"ELEMENT_SET_NO":999,"REV_AT_EPOCH":21175,"BSTAR":0.00050193471,"MEAN_MOTION_DOT":0.00026017,"MEAN_MOTION_DDOT":0},{"OBJECT_NAME":"HAWK-5A","OBJECT_ID":"2022-057AB","EPOCH":"2026-03-14T23:03:44.396928","MEAN_MOTION":15.47803201,"ECCENTRICITY":0.00056273,"INCLINATION":97.6458,"RA_OF_ASC_NODE":227.0655,"ARG_OF_PERICENTER":55.7233,"MEAN_ANOMALY":304.4549,"EPHEMERIS_TYPE":0,"CLASSIFICATION_TYPE":"U","NORAD_CAT_ID":52757,"ELEMENT_SET_NO":999,"REV_AT_EPOCH":21175,"BSTAR":0.00050651554,"MEAN_MOTION_DOT":0.00026259,"MEAN_MOTION_DDOT":0},{"OBJECT_NAME":"HAWK-6B","OBJECT_ID":"2023-011A","EPOCH":"2026-03-14T15:50:34.978848","MEAN_MOTION":15.21983523,"ECCENTRICITY":0.00015465,"INCLINATION":40.5092,"RA_OF_ASC_NODE":183.0377,"ARG_OF_PERICENTER":82.5819,"MEAN_ANOMALY":277.5166,"EPHEMERIS_TYPE":0,"CLASSIFICATION_TYPE":"U","NORAD_CAT_ID":55324,"ELEMENT_SET_NO":999,"REV_AT_EPOCH":17343,"BSTAR":0.00035790509,"MEAN_MOTION_DOT":8.154e-5,"MEAN_MOTION_DDOT":0},{"OBJECT_NAME":"HAWK-6C","OBJECT_ID":"2023-011C","EPOCH":"2026-03-14T15:49:44.685408","MEAN_MOTION":15.21986289,"ECCENTRICITY":0.00018145,"INCLINATION":40.4879,"RA_OF_ASC_NODE":179.8999,"ARG_OF_PERICENTER":57.6577,"MEAN_ANOMALY":302.4407,"EPHEMERIS_TYPE":0,"CLASSIFICATION_TYPE":"U","NORAD_CAT_ID":55326,"ELEMENT_SET_NO":999,"REV_AT_EPOCH":17344,"BSTAR":0.00037535175,"MEAN_MOTION_DOT":8.563e-5,"MEAN_MOTION_DDOT":0}]
