TECHNOSAT               
1 42829U 17042E   26074.01568472  .00004080  00000+0  29582-3 0  9991
2 42829  97.4142 235.3576 0018982  58.2057 302.1015 15.04330295472546
FLYING LAPTOP           
1 42831U 17042G   26074.31286006  .00003581  00000+0  28713-3 0  9997
2 42831  97.4282 233.7368 0019712  77.9230 282.4202 15.00559780472375
HAWK-A                  
1 43765U 18099H   26074.06286228  .00009197  00000+0  38400-3 0  9998
2 43765  97.4047 127.5569 0034266 255.7360 104.0070 15.23327285398765
HAWK-B                  
1 43794U 18099AN  26074.04080649  .00008397  00000+0  37001-3 0  9994
2 43794  97.4095 127.1397 0031233 273.8059  85.9606 15.21620584398715
HAWK-C                  
1 43799U 18099AT  26074.04796879  .00010710  00000+0  40315-3 0  9992
2 43799  97.4024 128.0095 0040380 257.7060 101.9656 15.26518545399547
SALSAT                  
1 46495U 20068K   26074.23852363  .00010372  00000+0  37867-3 0  9991
2 46495  97.8857  71.6917 0008033 272.6742  87.3577 15.28307413301004
HAWK-2C                 
1 47502U 21006CT  26074.09252179  .00008872  00000+0  27716-3 0  9991
2 47502  97.2413 120.3032 0007549 165.9667 194.1787 15.33377562285073
HAWK-2A                 
1 47505U 21006CW  26074.09596745  .00008589  00000+0  26828-3 0  9992
2 47505  97.2454 120.9288 0007068 168.4172 191.7234 15.33395510285078
HAWK-2B                 
1 47508U 21006CZ  26074.09280606  .00009514  00000+0  29684-3 0  9993
2 47508  97.2329 119.4149 0007736 166.7728 193.3719 15.33396480285074
HAWK-3B                 
1 48931U 21059BE  26074.25221314  .00045829  00000+0  52325-3 0  9998
2 48931  97.6721 262.5973 0004929 315.7658  44.3205 15.62065567263150
HAWK-3C                 
1 48948U 21059BX  26074.25195521  .00044817  00000+0  51169-3 0  9997
2 48948  97.6867 268.1081 0005316 317.3987  42.6857 15.62067911263154
HAWK-3A                 
1 48957U 21059CG  26074.25180002  .00045146  00000+0  51551-3 0  9996
2 48957  97.6802 265.3912 0004981 316.2362  43.8499 15.62065289263158
HAWK-5C                 
1 52754U 22057Y   26073.96133545  .00025797  00000+0  49769-3 0  9990
2 52754  97.6453 227.8913 0005348  59.0772 301.1002 15.47802827211758
HAWK-5B                 
1 52756U 22057AA  26073.96120586  .00026017  00000+0  50193-3 0  9992
2 52756  97.6460 226.2317 0005136  53.3358 306.8363 15.47801927211753
HAWK-5A                 
1 52757U 22057AB  26073.96093052  .00026259  00000+0  50652-3 0  9998
2 52757  97.6458 227.0655 0005627  55.7233 304.4549 15.47803201211755
HAWK-6B                 
1 55324U 23011A   26073.66012707  .00008154  00000+0  35791-3 0  9998
2 55324  40.5092 183.0377 0001546  82.5819 277.5166 15.21983523173430
HAWK-6C                 
1 55326U 23011C   26073.65954497  .00008563  00000+0  37535-3 0  9992
2 55326  40.4879 179.8999 0001814  57.6577 302.4407 15.21986289173448
